GALAXY 16 (G-16)        
1 29236U 06023A   26156.61487580 -.00000115  00000+0  00000+0 0  9998
2 29236   0.0109 277.2921 0002849 155.9512 303.1585  1.00272565 72850
EUTELSAT 33F            
1 29270U 06032A   26156.71240697  .00000168  00000+0  00000+0 0  9990
2 29270   1.6313  82.3726 0003586 347.9506 113.3833  1.00273756 47194
JCSAT-3A                
1 29272U 06033A   26156.73118140 -.00000332  00000+0  00000+0 0  9996
2 29272   0.0186 299.4086 0002214 141.7514 204.2272  1.00272113 47624
KOREASAT 5 (MUGUNGWHA 5)
1 29349U 06034A   26156.74137171 -.00000345  00000+0  00000+0 0  9992
2 29349   1.7551  83.1228 0001426  31.4364 159.5590  1.00273849 41201
DIRECTV 9S              
1 29494U 06043A   26156.68568817 -.00000101  00000+0  00000+0 0  9991
2 29494   2.3905  81.0400 0005171   4.4155 314.3232  1.00271918 51266
OPTUS D1                
1 29495U 06043B   26156.61403949 -.00000171  00000+0  00000+0 0  9996
2 29495   3.0046  79.7977 0003785 350.7130 196.5878  1.00272420 72003
BADR-4                  
1 29526U 06051A   26155.74309133  .00000167  00000+0  00000+0 0  9997
2 29526   1.9707  81.2738 0007892 161.5231 306.4291  1.00450212 51145
WILDBLUE-1              
1 29643U 06054A   26156.61244911 -.00000037  00000+0  00000+0 0  9996
2 29643   2.7727  80.6281 0001679 351.4725 291.2147  1.00272715 53678
SKYNET 5A               
1 30794U 07007B   26156.18566958 -.00000259  00000+0  00000+0 0  9990
2 30794   5.2713  73.8837 0004080   8.6578 333.1110  1.00268791 70570
ANIK F3                 
1 31102U 07009A   26156.61097578  .00000012  00000+0  00000+0 0  9997
2 31102   1.1669  83.9882 0002812 350.5245 280.7544  1.00270979 46440
ASTRA 1L                
1 31306U 07016A   26156.70091860 -.00000172  00000+0  00000+0 0  9997
2 31306   1.2916  81.6733 0005440   2.7368  37.5616  1.00271086 44877
GALAXY 17 (G-17)        
1 31307U 07016B   26156.54638637 -.00000194  00000+0  00000+0 0  9993
2 31307   2.9422  80.0469 0004948  12.2302 273.4062  1.00272836 69689
INTELSAT 11 (IS-11)     
1 32253U 07044B   26156.66939475 -.00000166  00000+0  00000+0 0  9991
2 32253   3.5350  78.8086 0001716  76.7099 155.9709  0.99053683 68332
WGS F1 (USA 195)        
1 32258U 07046A   26156.48346558 -.00000255  00000+0  00000+0 0  9991
2 32258   0.0485  93.9114 0000598 326.4041 325.1689  1.00271527 52217
SKYNET 5B               
1 32294U 07056B   26156.13378245  .00000151  00000+0  00000+0 0  9996
2 32294   5.2231  73.6448 0003752 356.6926 256.4898  1.00274236 68079
ASTRA 4A                
1 32299U 07057A   26156.70672529  .00000045  00000+0  00000+0 0  9999
2 32299   0.0261 302.0802 0002650 138.0346  73.2558  1.00273479 51536
HORIZONS-2              
1 32388U 07063B   26156.52486153 -.00000241  00000+0  00000+0 0  9990
2 32388   2.5715  80.7687 0004175 352.6871 295.6752  1.00273327 67690
THURAYA-3               
1 32404U 08001A   26156.70302910 -.00000140  00000+0  00000+0 0  9998
2 32404   5.9696  35.7802 0001010 148.4211  49.9316  1.00009784 67372
THOR 5                  
1 32487U 08006A   26156.56293978  .00000003  00000+0  00000+0 0  9998
2 32487   0.0100 342.7482 0002725 104.6568   8.4965  1.00271654 67206
AMC-14                  
1 32708U 08011A   26147.73428900 -.00000002  00000+0  00000+0 0  9994
2 32708  23.9628  20.7255 0049976  92.2727  95.7206  1.00350219 67965
DIRECTV 11              
1 32729U 08013A   26156.54361301 -.00000113  00000+0  00000+0 0  9992
2 32729   0.0073 240.3517 0000478 164.9225 305.2261  1.00272511 45473
ICO G1                  
1 32763U 08016A   26156.61617580 -.00000161  00000+0  00000+0 0  9997
2 32763   5.5310  36.1738 0002342  23.9554 322.8732  1.00272683 66428
VINASAT-1               
1 32767U 08018A   26156.73196141 -.00000315  00000+0  00000+0 0  9992
2 32767   0.0141 313.9222 0001367 122.7504 212.9433  1.00273344 66474
STAR ONE C2             
1 32768U 08018B   26156.55037306 -.00000264  00000+0  00000+0 0  9993
2 32768   1.2108  82.5697 0002941 359.6291 304.9157  1.00269611 66533
AMOS-3                  
1 32794U 08022A   26156.71188697  .00000168  00000+0  00000+0 0  9997
2 32794   0.4251  86.4231 0001882  58.5000  36.0638  1.00470588 82223
GALAXY 18 (G-18)        
1 32951U 08024A   26156.68144148  .00000038  00000+0  00000+0 0  9999
2 32951   0.0152  49.1250 0003287  35.9341 291.3629  1.00271843 45733
ZHONGXING-9             
1 33051U 08028A   26156.58740090 -.00000236  00000+0  00000+0 0  9993
2 33051   0.7391  85.5033 0004851 330.3500 141.9990  1.00269747 65921
SKYNET 5C               
1 33055U 08030A   26156.70230527 -.00000127  00000+0  00000+0 0  9992
2 33055   3.7590  77.1759 0004241   6.8867  45.1228  1.00271054 65849
TURKSAT 3A              
1 33056U 08030B   26156.71414030  .00000159  00000+0  00000+0 0  9991
2 33056   0.0689  83.4527 0005391 342.3428 127.4181  1.00271932 52247
INTELSAT 25 (IS-25)     
1 33153U 08034A   26156.63540626 -.00000187  00000+0  00000+0 0  9997
2 33153   2.6783  80.4476 0001747  15.6696 199.9005  0.99015529 65570
ECHOSTAR 11             
1 33207U 08035A   26156.61279579 -.00000045  00000+0  00000+0 0  9995
2 33207   0.9746  84.3134 0002606 336.2379 304.3034  1.00271893 51096
SUPERBIRD-C2            
1 33274U 08038A   26156.73274141 -.00000294  00000+0  00000+0 0  9991
2 33274   2.3310  81.4067 0006071  20.2225 192.3121  1.00273018105617
