OBJECT_NAME,OBJECT_ID,EPOCH,MEAN_MOTION,ECCENTRICITY,INCLINATION,RA_OF_ASC_NODE,ARG_OF_PERICENTER,MEAN_ANOMALY,EPHEMERIS_TYPE,CLASSIFICATION_TYPE,NORAD_CAT_ID,ELEMENT_SET_NO,REV_AT_EPOCH,BSTAR,MEAN_MOTION_DOT,MEAN_MOTION_DDOT
GALAXY 16 (G-16),2006-023A,2026-06-05T14:45:25.269120,1.00272565,.0002849,0.0109,277.2921,155.9512,303.1585,0,U,29236,999,7285,0,-.115E-5,0
EUTELSAT 33F,2006-032A,2026-06-05T17:05:51.962208,1.00273756,.0003586,1.6313,82.3726,347.9506,113.3833,0,U,29270,999,4719,0,.168E-5,0
JCSAT-3A,2006-033A,2026-06-05T17:32:54.072960,1.00272113,.0002214,0.0186,299.4086,141.7514,204.2272,0,U,29272,999,4762,0,-.332E-5,0
KOREASAT 5 (MUGUNGWHA 5),2006-034A,2026-06-05T17:47:34.515744,1.00273849,.0001426,1.7551,83.1228,31.4364,159.5590,0,U,29349,999,4120,0,-.345E-5,0
DIRECTV 9S,2006-043A,2026-06-05T16:27:23.457888,1.00271918,.0005171,2.3905,81.0400,4.4155,314.3232,0,U,29494,999,5126,0,-.101E-5,0
OPTUS D1,2006-043B,2026-06-05T14:44:13.011936,1.00272420,.0003785,3.0046,79.7977,350.7130,196.5878,0,U,29495,999,7200,0,-.171E-5,0
BADR-4,2006-051A,2026-06-04T17:50:03.090912,1.00450212,.00078927,1.9707,81.2738,161.5231,306.4291,0,U,29526,999,5114,0,.167E-5,0
WILDBLUE-1,2006-054A,2026-06-05T14:41:55.603104,1.00272715,.0001679,2.7727,80.6281,351.4725,291.2147,0,U,29643,999,5367,0,-.37E-6,0
SKYNET 5A,2007-007B,2026-06-05T04:27:21.851712,1.00268791,.000408,5.2713,73.8837,8.6578,333.1110,0,U,30794,999,7057,0,-.259E-5,0
ANIK F3,2007-009A,2026-06-05T14:39:48.307392,1.00270979,.0002812,1.1669,83.9882,350.5245,280.7544,0,U,31102,999,4644,0,.12E-6,0
ASTRA 1L,2007-016A,2026-06-05T16:49:19.367040,1.00271086,.000544,1.2916,81.6733,2.7368,37.5616,0,U,31306,999,4487,0,-.172E-5,0
GALAXY 17 (G-17),2007-016B,2026-06-05T13:06:47.782368,1.00272836,.0004948,2.9422,80.0469,12.2302,273.4062,0,U,31307,999,6968,0,-.194E-5,0
INTELSAT 11 (IS-11),2007-044B,2026-06-05T16:03:55.706400,0.99053683,.0001716,3.5350,78.8086,76.7099,155.9709,0,U,32253,999,6833,0,-.166E-5,0
WGS F1 (USA 195),2007-046A,2026-06-05T11:36:11.426112,1.00271527,.0000598,0.0485,93.9114,326.4041,325.1689,0,U,32258,999,5221,0,-.255E-5,0
SKYNET 5B,2007-056B,2026-06-05T03:12:38.803680,1.00274236,.00037522,5.2231,73.6448,356.6926,256.4898,0,U,32294,999,6807,0,.151E-5,0
ASTRA 4A,2007-057A,2026-06-05T16:57:41.065056,1.00273479,.000265,0.0261,302.0802,138.0346,73.2558,0,U,32299,999,5153,0,.45E-6,0
HORIZONS-2,2007-063B,2026-06-05T12:35:48.036192,1.00273327,.0004175,2.5715,80.7687,352.6871,295.6752,0,U,32388,999,6769,0,-.241E-5,0
THURAYA-3,2008-001A,2026-06-05T16:52:21.714240,1.00009784,.000101,5.9696,35.7802,148.4211,49.9316,0,U,32404,999,6737,0,-.14E-5,0
THOR 5,2008-006A,2026-06-05T13:30:37.996992,1.00271654,.0002725,0.0100,342.7482,104.6568,8.4965,0,U,32487,999,6720,0,.3E-7,0
AMC-14,2008-011A,2026-05-27T17:37:22.569600,1.00350219,.00499765,23.9628,20.7255,92.2727,95.7206,0,U,32708,999,6796,0,-.2E-7,0
DIRECTV 11,2008-013A,2026-06-05T13:02:48.164064,1.00272511,.0000478,0.0073,240.3517,164.9225,305.2261,0,U,32729,999,4547,0,-.113E-5,0
ICO G1,2008-016A,2026-06-05T14:47:17.589120,1.00272683,.0002342,5.5310,36.1738,23.9554,322.8732,0,U,32763,999,6642,0,-.161E-5,0
VINASAT-1,2008-018A,2026-06-05T17:34:01.465824,1.00273344,.0001367,0.0141,313.9222,122.7504,212.9433,0,U,32767,999,6647,0,-.315E-5,0
STAR ONE C2,2008-018B,2026-06-05T13:12:32.232384,1.00269611,.0002941,1.2108,82.5697,359.6291,304.9157,0,U,32768,999,6653,0,-.264E-5,0
AMOS-3,2008-022A,2026-06-05T17:05:07.034208,1.00470588,.0001882,0.4251,86.4231,58.5000,36.0638,0,U,32794,999,8222,0,.168E-5,0
GALAXY 18 (G-18),2008-024A,2026-06-05T16:21:16.543872,1.00271843,.0003287,0.0152,49.1250,35.9341,291.3629,0,U,32951,999,4573,0,.38E-6,0
ZHONGXING-9,2008-028A,2026-06-05T14:05:51.437760,1.00269747,.0004851,0.7391,85.5033,330.3500,141.9990,0,U,33051,999,6592,0,-.236E-5,0
SKYNET 5C,2008-030A,2026-06-05T16:51:19.175328,1.00271054,.0004241,3.7590,77.1759,6.8867,45.1228,0,U,33055,999,6584,0,-.127E-5,0
TURKSAT 3A,2008-030B,2026-06-05T17:08:21.721920,1.00271932,.0005391,0.0689,83.4527,342.3428,127.4181,0,U,33056,999,5224,0,.159E-5,0
INTELSAT 25 (IS-25),2008-034A,2026-06-05T15:14:59.100864,0.99015529,.0001747,2.6783,80.4476,15.6696,199.9005,0,U,33153,999,6557,0,-.187E-5,0
ECHOSTAR 11,2008-035A,2026-06-05T14:42:25.556256,1.00271893,.0002606,0.9746,84.3134,336.2379,304.3034,0,U,33207,999,5109,0,-.45E-6,0
SUPERBIRD-C2,2008-038A,2026-06-05T17:35:08.857824,1.00273018,.0006071,2.3310,81.4067,20.2225,192.3121,0,U,33274,999,10561,0,-.294E-5,0
